GLOBALSTAR M084         
1 38040U 11080A   24133.57912187 -.00000073  00000+0  17429-3 0  9994
2 38040  51.9993 188.0698 0000259 196.0024 319.1497 12.62262330572073
GLOBALSTAR M080         
1 38041U 11080B   24133.44236178 -.00000072  00000+0  17648-3 0  9992
2 38041  52.0045 189.9534 0000553 191.9807 180.5471 12.62272470572183
GLOBALSTAR M082         
1 38042U 11080C   24133.80737934 -.00000102  00000+0  81219-5 0  9990
2 38042  52.0051 144.2460 0000710  38.4237 133.1541 12.62269506573101
GLOBALSTAR M092         
1 38043U 11080D   24133.69617615 -.00000059  00000+0  25002-3 0  9998
2 38043  52.0080 234.9371 0000299 138.3236   9.4362 12.62280191571582
GLOBALSTAR M090         
1 38044U 11080E   24133.32364098 -.00000102  00000+0  75684-5 0  9995
2 38044  51.9860 140.0422 0000458  54.1111 318.9856 12.62263121572991
GLOBALSTAR M086         
1 38045U 11080F   24133.46252807 -.00000095  00000+0  46603-4 0  9994
2 38045  51.9871 140.1387 0000964 142.3458  22.3775 12.62270803572958
GLOBALSTAR M097         
1 39072U 13005A   24133.45312018 -.00000082  00000+0  11920-3 0  9993
2 39072  52.0065  54.3080 0000846  76.4580 283.6381 12.62262720520209
GLOBALSTAR M093         
1 39073U 13005B   24133.50564074 -.00000078  00000+0  14403-3 0  9995
2 39073  51.9831  48.0910 0000993  77.4792 282.6185 12.62263975520169
